[
  {
    "norad_id": "44909",
    "name": "DOSAAF-85",
    "tle1": "1 44909U 19096E   25126.07685293  .00000016  00000+0  17713-4 0  9996\r",
    "tle2": "2 44909  82.5210 250.1994 0217625  16.5538 344.2524 12.79740370250323",
    "transmitters": [
      {
        "description": "Mode U - Beacon",
        "mode": "CW",
        "status": "active",
        "uplink": null,
        "downlink": 435605000
      },
      {
        "description": "Mode U",
        "mode": "FSK",
        "status": "active",
        "uplink": null,
        "downlink": 435315000
      },
      {
        "description": "Mode V/U - Transponder",
        "mode": "USB",
        "status": "active",
        "uplink": "145935000-145995000",
        "downlink": "435610000-435670000"
      },
      {
        "description": "Doka-B",
        "mode": "DOKA",
        "status": "active",
        "uplink": null,
        "downlink": 435215000
      },
      {
        "description": "Mode U Audio",
        "mode": "BPSK",
        "status": "active",
        "uplink": null,
        "downlink": 435660000
      }
    ],
    "image": "satellites/dosaaf-85.jpg",
    "country": "RU"
  },
  {
    "norad_id": "43879",
    "name": "D-Star ONE iSat",
    "tle1": "1 43879U 18111D   25125.48755904  .00026795  00000+0  96456-3 0  9991\r",
    "tle2": "2 43879  97.5974  39.1388 0007503 337.7911  22.3003 15.28539312348332",
    "transmitters": [
      {
        "description": "MODE U/U FM VOICE",
        "mode": "FM",
        "status": "active",
        "uplink": 437325000,
        "downlink": 435525000
      },
      {
        "description": "GMSK4k8 Mobitex TLM",
        "mode": "GMSK",
        "status": "active",
        "uplink": null,
        "downlink": 435700000
      },
      {
        "description": "TLM",
        "mode": "FM",
        "status": "active",
        "uplink": null,
        "downlink": 435700000
      }
    ],
    "image": "",
    "country": "CZ,DE"
  },
  {
    "norad_id": "43881",
    "name": "D-Star ONE Sparrow",
    "tle1": "1 43881U 18111F   25125.49671922  .00028312  00000+0  98400-3 0  9990\r",
    "tle2": "2 43881  97.6113  41.8938 0007539  23.3254 336.8327 15.29676044348426",
    "transmitters": [
      {
        "description": "MODE U/U FM VOICE",
        "mode": "FM",
        "status": "active",
        "uplink": 437325000,
        "downlink": 435525000
      },
      {
        "description": "TLM",
        "mode": "FM",
        "status": "inactive",
        "uplink": null,
        "downlink": 435700000
      },
      {
        "description": "GMSK4k8 Mobitex TLM",
        "mode": "GMSK",
        "status": "active",
        "uplink": null,
        "downlink": 435700000
      }
    ],
    "image": "",
    "country": "DE"
  },
  {
    "norad_id": "58472",
    "name": "Eirsat-1",
    "tle1": "1 58472U 23185L   25126.22482276  .00097073  00000+0  11509-2 0  9997\r",
    "tle2": "2 58472  97.3721 201.7213 0007839 198.1406 161.9573 15.60864688 79795",
    "transmitters": [
      {
        "description": "Mode U - GMSK9k6",
        "mode": "GMSK",
        "status": "active",
        "uplink": null,
        "downlink": 437100000
      }
    ],
    "image": "satellites/eirsat-1.png",
    "country": "IE"
  },
  {
    "norad_id": "58470",
    "name": "ENSO",
    "tle1": "1 58470U 23185J   25126.12329983  .00058117  00000+0  95355-3 0  9997\r",
    "tle2": "2 58470  97.3758 200.2304 0008651 197.7453 162.3499 15.52209380 79681",
    "transmitters": [
      {
        "description": "HF Transmitter",
        "mode": "FM",
        "status": "active",
        "uplink": null,
        "downlink": 14099000
      },
      {
        "description": "Mode U - 2k4 Transmitter",
        "mode": "GMSK",
        "status": "inactive",
        "uplink": null,
        "downlink": 436500000
      },
      {
        "description": "Mode U - 9k6 Transmitter",
        "mode": "GMSK",
        "status": "active",
        "uplink": null,
        "downlink": 436500000
      }
    ],
    "image": "satellites/Patch-ENSO-1024x1024.png",
    "country": "FR"
  },
  {
    "norad_id": "43700",
    "name": "Es'Hail-2",
    "tle1": "1 43700U 18090A   25125.88348872  .00000137  00000+0  00000+0 0  9994\r",
    "tle2": "2 43700   0.0152 257.1890 0001929 182.8269 127.8145  1.00270152 23835",
    "transmitters": [
      {
        "description": "BPSK400 Upper Beacon",
        "mode": "BPSK",
        "status": "active",
        "uplink": null,
        "downlink": "10489795000-10489800000"
      },
      {
        "description": "CW Lower Beacon",
        "mode": "CW",
        "status": "inactive",
        "uplink": null,
        "downlink": "10489550000-10489555000"
      },
      {
        "description": "CW Only Transpoder",
        "mode": "CW",
        "status": "inactive",
        "uplink": "2400055000-2400100000",
        "downlink": "10489555000-10489600000"
      },
      {
        "description": "Narrowband digimodes(500Hz max BW)",
        "mode": "FM",
        "status": "inactive",
        "uplink": "2400100000-2400120000",
        "downlink": "10489600000-10489620000"
      },
      {
        "description": "digimodes(2700Hz max BW)",
        "mode": "FM",
        "status": "inactive",
        "uplink": "2400120000-2400140000",
        "downlink": "10489620000-10489640000"
      },
      {
        "description": "Mixed modes(2700Hz max BW)",
        "mode": "FM",
        "status": "inactive",
        "uplink": "2400140000-2400190000",
        "downlink": "10489640000-10489690000"
      },
      {
        "description": "SSB Only Transpoder",
        "mode": "FM",
        "status": "inactive",
        "uplink": "2400190000-2400295000",
        "downlink": "10489690000-10489795000"
      },
      {
        "description": "CW Lower Beacon",
        "mode": "CW",
        "status": "active",
        "uplink": null,
        "downlink": "10489500000-10489505000"
      },
      {
        "description": "CW Only Transpoder",
        "mode": "CW",
        "status": "active",
        "uplink": "2400005000-2400040000",
        "downlink": "10489505000-10489540000"
      },
      {
        "description": "Narrowband digimodes(500Hz max BW)",
        "mode": "FM",
        "status": "active",
        "uplink": "2400040000-2400080000",
        "downlink": "10489540000-10489580000"
      },
      {
        "description": "digimodes(2700Hz max BW)",
        "mode": "FM",
        "status": "active",
        "uplink": "2400080000-2400150000",
        "downlink": "10489580000-10489650000"
      },
      {
        "description": "SSB Only Transpoder",
        "mode": "FM",
        "status": "active",
        "uplink": "2400150000-2400245000",
        "downlink": "10489650000-10489745000"
      },
      {
        "description": "SSB Only Transpoder",
        "mode": "FM",
        "status": "active",
        "uplink": "2400255000-2400350000",
        "downlink": "10489755000-10489850000"
      },
      {
        "description": "BPSK400 Middle Beacon",
        "mode": "BPSK",
        "status": "active",
        "uplink": null,
        "downlink": "10489745000-10489755000"
      },
      {
        "description": "Mixed modes(2700Hz max BW)",
        "mode": "FM",
        "status": "active",
        "uplink": "2400350000-2400495000",
        "downlink": "10489850000-10489995000"
      },
      {
        "description": "CW Experimental Beacon",
        "mode": "CW",
        "status": "active",
        "uplink": null,
        "downlink": "10489995000-10490000000"
      },
      {
        "description": "BPSK400 Middle Beacon",
        "mode": "BPSK",
        "status": "active",
        "uplink": null,
        "downlink": "10489745000-10489755000"
      },
      {
        "description": "BPSK400 Lower Beacon",
        "mode": "BPSK",
        "status": "inactive",
        "uplink": null,
        "downlink": "10489550000-10489555000"
      },
      {
        "description": "Experimental Beacon",
        "mode": "FM",
        "status": "active",
        "uplink": null,
        "downlink": "10489995000-10490000000"
      },
      {
        "description": "CW Upper Beacon",
        "mode": "CW",
        "status": "inactive",
        "uplink": null,
        "downlink": "10489795000-10489800000"
      },
      {
        "description": "International Emergency Frequency",
        "mode": "USB",
        "status": "active",
        "uplink": 2400360000,
        "downlink": 10489860000
      },
      {
        "description": "IS0GRB Winlink Server",
        "mode": "OFDM",
        "status": "active",
        "uplink": null,
        "downlink": 10489635000
      },
      {
        "description": "IS0GRB Winlink Server",
        "mode": "OFDM",
        "status": "active",
        "uplink": null,
        "downlink": 10489635000
      }
    ],
    "image": "satellites/Eshail_2.jpg",
    "country": "QA"
  },
  {
    "norad_id": "24278",
    "name": "FO-29",
    "tle1": "1 24278U 96046B   25125.63377173  .00000028  00000+0  62014-4 0  9996\r",
    "tle2": "2 24278  98.5796  24.1201 0350954  73.1839 290.7484 13.53246256418044",
    "transmitters": [
      {
        "description": "Mode U CW Beacon",
        "mode": "CW",
        "status": "active",
        "uplink": null,
        "downlink": 435795000
      },
      {
        "description": "Mode V/U Linear Transponder",
        "mode": "USB",
        "status": "active",
        "uplink": "145900000-146000000",
        "downlink": "435800000-435900000"
      },
      {
        "description": "Mode U Digitalker",
        "mode": "FM",
        "status": "active",
        "uplink": null,
        "downlink": 435910000
      }
    ],
    "image": "https://db-satnogs.freetls.fastly.net/media/satellites/fo29.gif",
    "country": "JP"
  }
]